[{"OBJECT_NAME":"ONEWEB-0229","OBJECT_ID":"2021-045N","EPOCH":"2026-05-22T06:40:45.392160","MEAN_MOTION":13.15546818,"ECCENTRICITY":0.0001889,"INCLINATION":87.8998,"RA_OF_ASC_NODE":264.3514,"ARG_OF_PERICENTER":95.4001,"MEAN_ANOMALY":264.7345,"EPHEMERIS_TYPE":0,"CLASSIFICATION_TYPE":"U","NORAD_CAT_ID":48779,"ELEMENT_SET_NO":999,"REV_AT_EPOCH":24100,"BSTAR":4.2024e-05,"MEAN_MOTION_DOT":2.9e-07,"MEAN_MOTION_DDOT":0.0},{"OBJECT_NAME":"ONEWEB-0228","OBJECT_ID":"2021-045P","EPOCH":"2026-05-22T07:28:53.527296","MEAN_MOTION":13.15549344,"ECCENTRICITY":0.000181,"INCLINATION":87.9004,"RA_OF_ASC_NODE":264.3357,"ARG_OF_PERICENTER":98.1722,"MEAN_ANOMALY":261.9614,"EPHEMERIS_TYPE":0,"CLASSIFICATION_TYPE":"U","NORAD_CAT_ID":48780,"ELEMENT_SET_NO":999,"REV_AT_EPOCH":24092,"BSTAR":0.00032495,"MEAN_MOTION_DOT":1.35e-06,"MEAN_MOTION_DDOT":0.0},{"OBJECT_NAME":"ONEWEB-0232","OBJECT_ID":"2021-045Q","EPOCH":"2026-05-22T06:52:11.557632","MEAN_MOTION":13.15548853,"ECCENTRICITY":0.0001825,"INCLINATION":87.9003,"RA_OF_ASC_NODE":264.3423,"ARG_OF_PERICENTER":101.3646,"MEAN_ANOMALY":258.7689,"EPHEMERIS_TYPE":0,"CLASSIFICATION_TYPE":"U","NORAD_CAT_ID":48781,"ELEMENT_SET_NO":999,"REV_AT_EPOCH":24124,"BSTAR":-0.00025786,"MEAN_MOTION_DOT":-8.4e-07,"MEAN_MOTION_DDOT":0.0},{"OBJECT_NAME":"ONEWEB-0231","OBJECT_ID":"2021-045R","EPOCH":"2026-05-22T06:20:12.932448","MEAN_MOTION":13.15550396,"ECCENTRICITY":0.0001633,"INCLINATION":87.8989,"RA_OF_ASC_NODE":264.3619,"ARG_OF_PERICENTER":96.0203,"MEAN_ANOMALY":264.1114,"EPHEMERIS_TYPE":0,"CLASSIFICATION_TYPE":"U","NORAD_CAT_ID":48782,"ELEMENT_SET_NO":999,"REV_AT_EPOCH":24093,"BSTAR":0.00027265,"MEAN_MOTION_DOT":1.15e-06,"MEAN_MOTION_DDOT":0.0},{"OBJECT_NAME":"ONEWEB-0234","OBJECT_ID":"2021-045S","EPOCH":"2026-05-22T07:14:47.795712","MEAN_MOTION":13.1554704,"ECCENTRICITY":0.0001907,"INCLINATION":87.8995,"RA_OF_ASC_NODE":264.335,"ARG_OF_PERICENTER":125.8881,"MEAN_ANOMALY":234.2427,"EPHEMERIS_TYPE":0,"CLASSIFICATION_TYPE":"U","NORAD_CAT_ID":48783,"ELEMENT_SET_NO":999,"REV_AT_EPOCH":24107,"BSTAR":0.00010728,"MEAN_MOTION_DOT":5.3e-07,"MEAN_MOTION_DDOT":0.0},{"OBJECT_NAME":"ONEWEB-0238","OBJECT_ID":"2021-045T","EPOCH":"2026-05-21T20:18:04.569408","MEAN_MOTION":13.1554921,"ECCENTRICITY":0.0001821,"INCLINATION":87.8999,"RA_OF_ASC_NODE":264.4191,"ARG_OF_PERICENTER":113.7806,"MEAN_ANOMALY":246.3515,"EPHEMERIS_TYPE":0,"CLASSIFICATION_TYPE":"U","NORAD_CAT_ID":48784,"ELEMENT_SET_NO":999,"REV_AT_EPOCH":24091,"BSTAR":-0.00016478,"MEAN_MOTION_DOT":-4.9e-07,"MEAN_MOTION_DDOT":0.0},{"OBJECT_NAME":"ONEWEB-0240","OBJECT_ID":"2021-045U","EPOCH":"2026-05-21T20:48:40.288608","MEAN_MOTION":13.15549465,"ECCENTRICITY":0.0001519,"INCLINATION":87.9002,"RA_OF_ASC_NODE":264.4255,"ARG_OF_PERICENTER":99.8099,"MEAN_ANOMALY":260.3203,"EPHEMERIS_TYPE":0,"CLASSIFICATION_TYPE":"U","NORAD_CAT_ID":48785,"ELEMENT_SET_NO":999,"REV_AT_EPOCH":24094,"BSTAR":0.0002606,"MEAN_MOTION_DOT":1.11e-06,"MEAN_MOTION_DDOT":0.0},{"OBJECT_NAME":"ONEWEB-0246","OBJECT_ID":"2021-045V","EPOCH":"2026-05-22T07:37:49.080288","MEAN_MOTION":13.15549876,"ECCENTRICITY":0.0001923,"INCLINATION":87.8998,"RA_OF_ASC_NODE":264.3406,"ARG_OF_PERICENTER":96.2434,"MEAN_ANOMALY":263.8916,"EPHEMERIS_TYPE":0,"CLASSIFICATION_TYPE":"U","NORAD_CAT_ID":48786,"ELEMENT_SET_NO":999,"REV_AT_EPOCH":24087,"BSTAR":0.00038526,"MEAN_MOTION_DOT":1.58e-06,"MEAN_MOTION_DDOT":0.0},{"OBJECT_NAME":"ONEWEB-0210","OBJECT_ID":"2021-045W","EPOCH":"2026-05-22T07:01:19.628256","MEAN_MOTION":13.15549207,"ECCENTRICITY":0.0001994,"INCLINATION":87.8996,"RA_OF_ASC_NODE":264.3424,"ARG_OF_PERICENTER":73.7597,"MEAN_ANOMALY":286.3753,"EPHEMERIS_TYPE":0,"CLASSIFICATION_TYPE":"U","NORAD_CAT_ID":48787,"ELEMENT_SET_NO":999,"REV_AT_EPOCH":24091,"BSTAR":-0.00016682,"MEAN_MOTION_DOT":-5e-07,"MEAN_MOTION_DDOT":0.0},{"OBJECT_NAME":"ONEWEB-0214","OBJECT_ID":"2021-045X","EPOCH":"2026-05-22T01:45:16.818912","MEAN_MOTION":13.15552656,"ECCENTRICITY":0.0002144,"INCLINATION":87.8998,"RA_OF_ASC_NODE":264.3826,"ARG_OF_PERICENTER":91.3535,"MEAN_ANOMALY":268.7841,"EPHEMERIS_TYPE":0,"CLASSIFICATION_TYPE":"U","NORAD_CAT_ID":48788,"ELEMENT_SET_NO":999,"REV_AT_EPOCH":24085,"BSTAR":-0.0033556000000000002,"MEAN_MOTION_DOT":-1.25e-05,"MEAN_MOTION_DDOT":0.0},{"OBJECT_NAME":"ONEWEB-0221","OBJECT_ID":"2021-045Y","EPOCH":"2026-05-22T07:24:06.160032","MEAN_MOTION":13.15549213,"ECCENTRICITY":0.0001701,"INCLINATION":87.8998,"RA_OF_ASC_NODE":264.345,"ARG_OF_PERICENTER":96.2609,"MEAN_ANOMALY":263.8716,"EPHEMERIS_TYPE":0,"CLASSIFICATION_TYPE":"U","NORAD_CAT_ID":48789,"ELEMENT_SET_NO":999,"REV_AT_EPOCH":24097,"BSTAR":-0.00017402999999999999,"MEAN_MOTION_DOT":-5.3e-07,"MEAN_MOTION_DDOT":0.0},{"OBJECT_NAME":"ONEWEB-0213","OBJECT_ID":"2021-045Z","EPOCH":"2026-05-22T01:39:35.122464","MEAN_MOTION":13.15549474,"ECCENTRICITY":0.0001733,"INCLINATION":87.8997,"RA_OF_ASC_NODE":264.3961,"ARG_OF_PERICENTER":91.4476,"MEAN_ANOMALY":268.6852,"EPHEMERIS_TYPE":0,"CLASSIFICATION_TYPE":"U","NORAD_CAT_ID":48790,"ELEMENT_SET_NO":999,"REV_AT_EPOCH":24100,"BSTAR":-0.00022799,"MEAN_MOTION_DOT":-7.3e-07,"MEAN_MOTION_DDOT":0.0},{"OBJECT_NAME":"ONEWEB-0212","OBJECT_ID":"2021-045AA","EPOCH":"2026-05-22T06:35:05.012448","MEAN_MOTION":13.1554869,"ECCENTRICITY":0.0001848,"INCLINATION":87.8996,"RA_OF_ASC_NODE":264.3496,"ARG_OF_PERICENTER":101.4165,"MEAN_ANOMALY":258.7173,"EPHEMERIS_TYPE":0,"CLASSIFICATION_TYPE":"U","NORAD_CAT_ID":48791,"ELEMENT_SET_NO":999,"REV_AT_EPOCH":24102,"BSTAR":-0.00028205000000000005,"MEAN_MOTION_DOT":-9.3e-07,"MEAN_MOTION_DDOT":0.0},{"OBJECT_NAME":"ONEWEB-0227","OBJECT_ID":"2021-045AB","EPOCH":"2026-05-22T06:33:55.388736","MEAN_MOTION":13.15547249,"ECCENTRICITY":0.0001792,"INCLINATION":87.8999,"RA_OF_ASC_NODE":264.351,"ARG_OF_PERICENTER":99.524,"MEAN_ANOMALY":260.6093,"EPHEMERIS_TYPE":0,"CLASSIFICATION_TYPE":"U","NORAD_CAT_ID":48792,"ELEMENT_SET_NO":999,"REV_AT_EPOCH":24097,"BSTAR":-8.5333e-05,"MEAN_MOTION_DOT":-1.9e-07,"MEAN_MOTION_DDOT":0.0},{"OBJECT_NAME":"ONEWEB-0226","OBJECT_ID":"2021-045AC","EPOCH":"2026-05-22T06:24:48.767904","MEAN_MOTION":13.155482,"ECCENTRICITY":0.0001835,"INCLINATION":87.8993,"RA_OF_ASC_NODE":264.3576,"ARG_OF_PERICENTER":91.4392,"MEAN_ANOMALY":268.6948,"EPHEMERIS_TYPE":0,"CLASSIFICATION_TYPE":"U","NORAD_CAT_ID":48793,"ELEMENT_SET_NO":999,"REV_AT_EPOCH":24094,"BSTAR":0.00032023,"MEAN_MOTION_DOT":1.33e-06,"MEAN_MOTION_DDOT":0.0},{"OBJECT_NAME":"ONEWEB-0224","OBJECT_ID":"2021-045AD","EPOCH":"2026-05-22T07:21:50.734080","MEAN_MOTION":13.15549346,"ECCENTRICITY":0.0001265,"INCLINATION":87.8988,"RA_OF_ASC_NODE":264.3846,"ARG_OF_PERICENTER":124.4177,"MEAN_ANOMALY":235.7073,"EPHEMERIS_TYPE":0,"CLASSIFICATION_TYPE":"U","NORAD_CAT_ID":48794,"ELEMENT_SET_NO":999,"REV_AT_EPOCH":24087,"BSTAR":0.00014616000000000002,"MEAN_MOTION_DOT":6.8e-07,"MEAN_MOTION_DDOT":0.0}]