ONEWEB-0229             
1 48779U 21045N   26142.27830315  .00000029  00000+0  42024-4 0  9997
2 48779  87.8998 264.3514 0001889  95.4001 264.7345 13.15546818241006
ONEWEB-0228             
1 48780U 21045P   26142.31173064  .00000135  00000+0  32495-3 0  9993
2 48780  87.9004 264.3357 0001810  98.1722 261.9614 13.15549344240921
ONEWEB-0232             
1 48781U 21045Q   26142.28624488 -.00000084  00000+0 -25786-3 0  9991
2 48781  87.9003 264.3423 0001825 101.3646 258.7689 13.15548853241249
ONEWEB-0231             
1 48782U 21045R   26142.26403857  .00000115  00000+0  27265-3 0  9992
2 48782  87.8989 264.3619 0001633  96.0203 264.1114 13.15550396240939
ONEWEB-0234             
1 48783U 21045S   26142.30194208  .00000053  00000+0  10728-3 0  9992
2 48783  87.8995 264.3350 0001907 125.8881 234.2427 13.15547040241079
ONEWEB-0238             
1 48784U 21045T   26141.84588622 -.00000049  00000+0 -16478-3 0  9993
2 48784  87.8999 264.4191 0001821 113.7806 246.3515 13.15549210240911
ONEWEB-0240             
1 48785U 21045U   26141.86713297  .00000111  00000+0  26060-3 0  9990
2 48785  87.9002 264.4255 0001519  99.8099 260.3203 13.15549465240946
ONEWEB-0246             
1 48786U 21045V   26142.31792917  .00000158  00000+0  38526-3 0  9999
2 48786  87.8998 264.3406 0001923  96.2434 263.8916 13.15549876240877
ONEWEB-0210             
1 48787U 21045W   26142.29258829 -.00000050  00000+0 -16682-3 0  9998
2 48787  87.8996 264.3424 0001994  73.7597 286.3753 13.15549207240916
ONEWEB-0214             
1 48788U 21045X   26142.07311133 -.00001250  00000+0 -33556-2 0  9994
2 48788  87.8998 264.3826 0002144  91.3535 268.7841 13.15552656240858
ONEWEB-0221             
1 48789U 21045Y   26142.30840463 -.00000053  00000+0 -17403-3 0  9998
2 48789  87.8998 264.3450 0001701  96.2609 263.8716 13.15549213240971
ONEWEB-0213             
1 48790U 21045Z   26142.06915651 -.00000073  00000+0 -22799-3 0  9991
2 48790  87.8997 264.3961 0001733  91.4476 268.6852 13.15549474241001
ONEWEB-0212             
1 48791U 21045AA  26142.27436357 -.00000093  00000+0 -28205-3 0  9996
2 48791  87.8996 264.3496 0001848 101.4165 258.7173 13.15548690241025
ONEWEB-0227             
1 48792U 21045AB  26142.27355774 -.00000019  00000+0 -85333-4 0  9994
2 48792  87.8999 264.3510 0001792  99.5240 260.6093 13.15547249240970
ONEWEB-0226             
1 48793U 21045AC  26142.26723111  .00000133  00000+0  32023-3 0  9990
2 48793  87.8993 264.3576 0001835  91.4392 268.6948 13.15548200240946
ONEWEB-0224             
1 48794U 21045AD  26142.30683720  .00000068  00000+0  14616-3 0  9992
2 48794  87.8988 264.3846 0001265 124.4177 235.7073 13.15549346240874
